ONEWEB-0326             
1 49195U 21083K   24092.58756314  .00000002  00000+0 -27334-4 0  9993
2 49195  87.9160 136.0237 0002640  93.1848 266.9586 13.18685315123692
ONEWEB-0327             
1 49196U 21083L   24092.48559601 -.00000029  00000+0 -10742-3 0  9997
2 49196  87.9163 136.0557 0002400  91.2068 268.9339 13.18685028123709
ONEWEB-0328             
1 49197U 21083M   24092.80541042 -.00000179  00000+0 -52494-3 0  9990
2 49197  87.8897 120.7638 0002115  96.5975 263.5395 13.13471209126335
ONEWEB-0331             
1 49198U 21083N   24092.58123245  .00000041  00000+0  70503-4 0  9995
2 49198  87.9161 136.0177 0002217  97.6337 262.5047 13.18685061123705
ONEWEB-0333             
1 49199U 21083P   24092.57210601 -.00000230  00000+0 -66565-3 0  9992
2 49199  87.8911 120.8283 0001811  91.6922 268.4415 13.13473064125024
ONEWEB-0334             
1 49200U 21083Q   24092.45266176  .00000111  00000+0  23993-3 0  9994
2 49200  87.9142  75.0154 0001439  62.6520 297.4759 13.20769790130302
ONEWEB-0335             
1 49201U 21083R   24092.56736033 -.00000280  00000+0 -80064-3 0  9992
2 49201  87.8912 120.8176 0002057  98.0073 262.1289 13.13470318125031
ONEWEB-0336             
1 49202U 21083S   24092.84192862  .00000322  00000+0  84801-3 0  9998
2 49202  87.8910 120.7600 0001946  89.1735 270.9617 13.13469940126361
ONEWEB-0337             
1 49203U 21083T   24092.54659328  .00000065  00000+0  14327-3 0  9991
2 49203  87.8911 120.8174 0002087  98.0692 262.0674 13.13470308125025
ONEWEB-0338             
1 49204U 21083U   24092.45897332  .00000057  00000+0  10760-3 0  9999
2 49204  87.9147  74.9931 0001488  86.9724 273.1579 13.20769455130322
ONEWEB-0339             
1 49205U 21083V   24092.55784260 -.00000234  00000+0 -67643-3 0  9997
2 49205  87.8909 120.8120 0001988  98.9706 261.1648 13.13469669125006
ONEWEB-0340             
1 49206U 21083W   24092.87051764 -.00000015  00000+0 -71839-4 0  9999
2 49206  87.9162 135.9544 0002223  96.8398 263.2987 13.18685383124997
ONEWEB-0341             
1 49207U 21083X   24092.87842075 -.00000167  00000+0 -45661-3 0  9994
2 49207  87.9161 135.9678 0002269 117.0236 243.1128 13.18686260125015
ONEWEB-0342             
1 49208U 21083Y   24092.46530425  .00000086  00000+0  17846-3 0  9995
2 49208  87.9137  75.0084 0001720  84.2632 275.8697 13.20772151130297
ONEWEB-0343             
1 49209U 21083Z   24092.57016828  .00000029  00000+0  41448-4 0  9997
2 49209  87.9156 136.0406 0002051 115.5336 244.6008 13.18687065123739
ONEWEB-0344             
1 49210U 21083AA  24092.52451483  .00000310  00000+0  81511-3 0  9991
2 49210  87.8912 120.8336 0002226  94.1987 265.9396 13.13470842125007
ONEWEB-0345             
1 49211U 21083AB  24092.46579425  .00000129  00000+0  31846-3 0  9996
2 49211  87.8908 120.8226 0002432 103.6185 256.5215 13.13470062125006
ONEWEB-0346             
1 49212U 21083AC  24092.88316394  .00000040  00000+0  69762-4 0  9998
2 49212  87.9163 135.9753 0002497  93.9349 266.2069 13.18685593125004
ONEWEB-0348             
1 49213U 21083AD  24092.45581446  .00000057  00000+0  10835-3 0  9998
2 49213  87.9149  74.9753 0002610  93.9059 266.2372 13.20768319130325
ONEWEB-0350             
1 49214U 21083AE  24092.55149879 -.00000124  00000+0 -37380-3 0  9991
2 49214  87.8909 120.7969 0002278 101.5540 258.5845 13.13469227125049
ONEWEB-0351             
1 49215U 21083AF  24092.90405580  .00000100  00000+0  21352-3 0  9999
2 49215  87.9145  74.8885 0000985  73.1590 286.9651 13.20770334131657
ONEWEB-0352             
1 49216U 21083AG  24092.53245605  .00000297  00000+0  77960-3 0  9992
2 49216  87.8911 120.8295 0001695  96.6625 263.4697 13.13470291126434
ONEWEB-0354             
1 49217U 21083AH  24092.47475081 -.00000285  00000+0 -73296-3 0  9996
2 49217  87.9147  74.9562 0001981  96.6618 263.4741 13.20771258130321
ONEWEB-0355             
1 49218U 21083AJ  24092.56259433 -.00000283  00000+0 -81098-3 0  9995
2 49218  87.8912 120.8226 0001913  99.0270 261.1075 13.13470946125012
ONEWEB-0357             
1 49219U 21083AK  24092.47161491  .00000013  00000+0  58948-6 0  9992
2 49219  87.9145  74.9777 0002003  88.0870 272.0493 13.20770600130320
ONEWEB-0332             
1 49279U 21090A   24092.75071790  .00000321  00000+0  83033-3 0  9991
2 49279  87.8894  90.2061 0001644  79.0361 281.0953 13.14502621121632
ONEWEB-0347             
1 49280U 21090B   24092.46212448 -.00000176  00000+0 -46460-3 0  9991
2 49280  87.9147  74.9767 0001614  73.2795 286.8516 13.20771215124558
ONEWEB-0349             
1 49281U 21090C   24092.87248622  .00000040  00000+0  66143-4 0  9999
2 49281  87.9150  74.8930 0002151  91.6211 268.5169 13.20769671124686
ONEWEB-0353             
1 49282U 21090D   24092.43831412  .00000203  00000+0  51243-3 0  9992
2 49282  87.8895  90.2530 0001668  81.3669 278.7649 13.14504952121590
ONEWEB-0356             
1 49283U 21090E   24092.87091027  .00000021  00000+0  19760-4 0  9998
2 49283  87.9150  74.8886 0002717  72.3181 287.8249 13.20769182124688
ONEWEB-0358             
1 49284U 21090F   24092.90091146  .00000088  00000+0  18565-3 0  9999
2 49284  87.9149  74.8686 0002255  87.9231 272.2161 13.20772437125410
ONEWEB-0359             
1 49285U 21090G   24092.89775209  .00000099  00000+0  21274-3 0  9990
2 49285  87.9147  74.8889 0002174 100.0097 260.1281 13.20772585125380
ONEWEB-0360             
1 49286U 21090H   24092.50948322  .00000131  00000+0  29109-3 0  9999
2 49286  87.9147  74.9709 0001966  90.3255 269.8103 13.20769260123369
ONEWEB-0361             
1 49287U 21090J   24092.49053670  .00000048  00000+0  85572-4 0  9995
2 49287  87.9149  74.9687 0002003  82.9865 277.1496 13.20769033123819
ONEWEB-0362             
1 49288U 21090K   24092.56236096  .00000047  00000+0  84785-4 0  9993
2 49288  87.9098 105.5408 0001685 100.3193 259.8130 13.19723679120520
ONEWEB-0363             
1 49289U 21090L   24092.50632820  .00000038  00000+0  60847-4 0  9996
2 49289  87.9147  74.9609 0002343  81.7660 278.3738 13.20769407123828
ONEWEB-0364             
1 49290U 21090M   24092.46843646 -.00000230  00000+0 -59786-3 0  9998
2 49290  87.9150  74.9923 0001792  80.3524 279.7812 13.20770761124952
ONEWEB-0365             
1 49291U 21090N   24092.79928821  .00000040  00000+0  67993-4 0  9991
2 49291  87.9093 105.4789 0001842  93.2168 266.9175 13.19723355121358
ONEWEB-0366             
1 49292U 21090P   24092.51126530  .00000241  00000+0  61565-3 0  9990
2 49292  87.8894  90.2468 0001875  82.2027 277.9315 13.14503834121586
ONEWEB-0367             
1 49293U 21090Q   24092.88353224  .00000112  00000+0  24388-3 0  9992
2 49293  87.9149  74.8799 0001824  77.9478 282.1859 13.20769694124692
ONEWEB-0368             
1 49294U 21090R   24092.47791041  .00000055  00000+0  10359-3 0  9990
2 49294  87.9148  74.9903 0002122  60.3705 299.7639 13.20769898124495
ONEWEB-0369             
1 49295U 21090S   24092.56712148 -.00000010  00000+0 -58075-4 0  9993
2 49295  87.9099 105.5229 0001792  87.5003 272.6335 13.19724173120020
ONEWEB-0370             
1 49296U 21090T   24092.51420939  .00000056  00000+0  10616-3 0  9999
2 49296  87.9149  74.9580 0002019  85.4806 274.6557 13.20768659123386
ONEWEB-0371             
1 49297U 21090U   24092.72665157  .00000036  00000+0  57519-4 0  9998
2 49297  87.9099 105.4810 0001786  92.0829 268.0509 13.19724583121373
ONEWEB-0372             
1 49298U 21090V   24092.88181657  .00000075  00000+0  15153-3 0  9994
2 49298  87.9151  74.8924 0001787  84.1492 275.9845 13.20770247124707
ONEWEB-0373             
1 49299U 21090W   24092.45423912  .00000078  00000+0  15939-3 0  9996
2 49299  87.9148  74.9951 0002100  76.2163 283.9204 13.20768800124533
ONEWEB-0374             
1 49300U 21090X   24092.49857268  .00000026  00000+0  35655-4 0  9999
2 49300  87.8892  90.2354 0001898  83.5100 276.6245 13.14504201121586
ONEWEB-0375             
1 49301U 21090Y   24092.51737575  .00000094  00000+0  19850-3 0  9994
2 49301  87.9148  74.9582 0002663  82.5792 277.5644 13.20769509124049
ONEWEB-0376             
1 49302U 21090Z   24092.57341634 -.00000040  00000+0 -13125-3 0  9990
2 49302  87.9093 105.5250 0001648  88.5147 271.6175 13.19724518120065
ONEWEB-0377             
1 49303U 21090AA  24092.42755723 -.00000053  00000+0 -16280-3 0  9992
2 49303  87.9149  74.9675 0002052  93.1740 266.9628 13.20771773124026
ONEWEB-0378             
1 49304U 21090AB  24092.58334491 -.00036787  00000+0 -90862-1 0  9994
2 49304  87.9158  74.9387 0002165  83.3131 189.0320 13.20780569  5246
ONEWEB-0379             
1 49305U 21090AC  24092.49381103 -.00000042  00000+0 -14705-3 0  9996
2 49305  87.8891  90.2389 0001881  84.5679 275.5666 13.14499850121580
ONEWEB-0380             
1 49306U 21090AD  24092.57028179  .00000023  00000+0  25310-4 0  9999
2 49306  87.9098 105.5253 0001994  93.3013 266.8348 13.19725232120036
ONEWEB-0381             
1 49307U 21090AE  24092.57576267  .00000127  00000+0  27994-3 0  9990
2 49307  87.9149  74.9443 0002045  87.6745 272.4622 13.20769399123350
ONEWEB-0382             
1 49308U 21090AF  24092.63889411  .00000033  00000+0  50016-4 0  9994
2 49308  87.9148  74.9292 0002319  77.2619 282.8773 13.20769292124660
ONEWEB-0383             
1 49309U 21090AG  24092.48747300 -.00000145  00000+0 -42473-3 0  9991
2 49309  87.8891  90.2302 0002009  80.8660 279.2696 13.14503637121618
ONEWEB-0384             
1 49310U 21090AH  24092.48424102 -.00001701  00000+0 -42181-2 0  9999
2 49310  87.9149  74.9703 0002326  75.9309 284.2082 13.20756917123343
ONEWEB-0385             
1 49311U 21090AJ  24092.47948985 -.00000015  00000+0 -69662-4 0  9991
2 49311  87.9150  74.9727 0002278  81.5141 278.6251 13.20769180123313
ONEWEB-0386             
1 49312U 21090AK  24092.87563279 -.00000221  00000+0 -57671-3 0  9990
2 49312  87.9143  74.8935 0002122  78.5757 281.5614 13.20770009124693
